{
"type": "FeatureCollection",
"name": "recanto_focus_aoi",
"crs": { "type": "name", "properties": { "name": "urn:ogc:def:crs:EPSG::32723" } },
"features": [
{"type":"Feature","properties":{"id":null},"geometry":{"type":"MultiPolygon","coordinates":[[[[703479.996564005850814,7458086.513631570152938],[703479.99656400596723,7458715.795565746724606],[705331.883398818550631,7458715.795565746724606],[705331.883398818434216,7458086.513631571084261],[703479.996564005850814,7458086.513631570152938]]]]}}
]
}
