{
"type": "FeatureCollection",
"name": "waterline_mndwi_2025",
"crs": { "type": "name", "properties": { "name": "urn:ogc:def:crs:EPSG::32723" } },
"features": [
{ "type": "Feature", "properties": { "source": "MNDWI", "threshold": 0.0 }, "geometry": { "type": "MultiLineString", "coordinates": [ [ [ 703690.0, 7458170.0 ], [ 703700.0, 7458170.0 ], [ 703700.0, 7458180.0 ], [ 703710.0, 7458180.0 ], [ 703710.0, 7458170.0 ], [ 703720.0, 7458170.0 ], [ 703720.0, 7458210.0 ], [ 703790.0, 7458210.0 ], [ 703790.0, 7458220.0 ], [ 703860.0, 7458220.0 ], [ 703860.0, 7458230.0 ], [ 703850.0, 7458230.0 ], [ 703850.0, 7458240.0 ], [ 703840.0, 7458240.0 ], [ 703840.0, 7458250.0 ], [ 703830.0, 7458250.0 ], [ 703830.0, 7458280.0 ], [ 703840.0, 7458280.0 ], [ 703840.0, 7458310.0 ], [ 703850.0, 7458310.0 ], [ 703850.0, 7458320.0 ], [ 703860.0, 7458320.0 ], [ 703860.0, 7458340.0 ], [ 703880.0, 7458340.0 ], [ 703880.0, 7458350.0 ], [ 703890.0, 7458350.0 ], [ 703890.0, 7458360.0 ], [ 703910.0, 7458360.0 ], [ 703910.0, 7458370.0 ], [ 703930.0, 7458370.0 ], [ 703930.0, 7458380.0 ], [ 703970.0, 7458380.0 ], [ 703970.0, 7458390.0 ], [ 704040.0, 7458390.0 ], [ 704040.0, 7458400.0 ], [ 704180.0, 7458400.0 ], [ 704180.0, 7458410.0 ], [ 704250.0, 7458410.0 ], [ 704250.0, 7458420.0 ], [ 704390.0, 7458420.0 ], [ 704390.0, 7458430.0 ], [ 704520.0, 7458430.0 ], [ 704520.0, 7458440.0 ], [ 704540.0, 7458440.0 ], [ 704540.0, 7458430.0 ], [ 704550.0, 7458430.0 ], [ 704550.0, 7458440.0 ], [ 704920.0, 7458440.0 ], [ 704920.0, 7458450.0 ], [ 704950.0, 7458450.0 ], [ 704950.0, 7458440.0 ], [ 705000.0, 7458440.0 ], [ 705000.0, 7458450.0 ], [ 705030.0, 7458450.0 ], [ 705030.0, 7458440.0 ], [ 705130.0, 7458440.0 ], [ 705130.0, 7458450.0 ], [ 705150.0, 7458450.0 ], [ 705150.0, 7458440.0 ], [ 705170.0, 7458440.0 ], [ 705170.0, 7458450.0 ], [ 705220.0, 7458450.0 ], [ 705220.0, 7458460.0 ], [ 705311.883398818550631, 7458460.0 ] ], [ [ 703640.0, 7458106.513631570152938 ], [ 703640.0, 7458110.0 ], [ 703650.0, 7458110.0 ], [ 703650.0, 7458120.0 ], [ 703680.0, 7458120.0 ], [ 703680.0, 7458130.0 ], [ 703690.0, 7458130.0 ], [ 703690.0, 7458150.0 ], [ 703710.0, 7458150.0 ] ], [ [ 703710.0, 7458150.0 ], [ 703710.0, 7458160.0 ], [ 703690.0, 7458160.0 ], [ 703690.0, 7458170.0 ] ], [ [ 703710.0, 7458140.0 ], [ 703720.0, 7458140.0 ], [ 703720.0, 7458150.0 ] ], [ [ 703720.0, 7458150.0 ], [ 703710.0, 7458150.0 ] ], [ [ 703710.0, 7458150.0 ], [ 703710.0, 7458140.0 ] ], [ [ 703730.0, 7458150.0 ], [ 703730.0, 7458160.0 ], [ 703720.0, 7458160.0 ], [ 703720.0, 7458150.0 ] ], [ [ 703720.0, 7458150.0 ], [ 703730.0, 7458150.0 ] ], [ [ 703870.0, 7458260.0 ], [ 703860.0, 7458260.0 ], [ 703860.0, 7458250.0 ], [ 703870.0, 7458250.0 ], [ 703870.0, 7458260.0 ] ] ] } }
]
}
