{
"type": "FeatureCollection",
"name": "waterline_mndwi_2019",
"crs": { "type": "name", "properties": { "name": "urn:ogc:def:crs:EPSG::32723" } },
"features": [
{ "type": "Feature", "properties": { "source": "MNDWI", "threshold": 0.0 }, "geometry": { "type": "MultiLineString", "coordinates": [ [ [ 703710.0, 7458250.0 ], [ 703710.0, 7458260.0 ], [ 703720.0, 7458260.0 ], [ 703720.0, 7458270.0 ], [ 703740.0, 7458270.0 ], [ 703740.0, 7458280.0 ], [ 703770.0, 7458280.0 ], [ 703770.0, 7458290.0 ], [ 703800.0, 7458290.0 ], [ 703800.0, 7458300.0 ], [ 703840.0, 7458300.0 ], [ 703840.0, 7458310.0 ], [ 703860.0, 7458310.0 ], [ 703860.0, 7458320.0 ], [ 703910.0, 7458320.0 ], [ 703910.0, 7458330.0 ], [ 703930.0, 7458330.0 ], [ 703930.0, 7458340.0 ], [ 703980.0, 7458340.0 ], [ 703980.0, 7458320.0 ], [ 704000.0, 7458320.0 ], [ 704000.0, 7458340.0 ], [ 704040.0, 7458340.0 ], [ 704040.0, 7458360.0 ], [ 704100.0, 7458360.0 ], [ 704100.0, 7458370.0 ], [ 704130.0, 7458370.0 ], [ 704130.0, 7458380.0 ], [ 704140.0, 7458380.0 ], [ 704140.0, 7458360.0 ], [ 704180.0, 7458360.0 ], [ 704180.0, 7458380.0 ], [ 704280.0, 7458380.0 ], [ 704280.0, 7458400.0 ], [ 704330.0, 7458400.0 ], [ 704330.0, 7458410.0 ], [ 704410.0, 7458410.0 ], [ 704410.0, 7458420.0 ], [ 704570.0, 7458420.0 ], [ 704570.0, 7458430.0 ], [ 704730.0, 7458430.0 ], [ 704730.0, 7458420.0 ], [ 704780.0, 7458420.0 ], [ 704780.0, 7458430.0 ], [ 704880.0, 7458430.0 ], [ 704880.0, 7458440.0 ], [ 704890.0, 7458440.0 ], [ 704890.0, 7458430.0 ], [ 705020.0, 7458430.0 ], [ 705020.0, 7458420.0 ], [ 705030.0, 7458420.0 ], [ 705030.0, 7458430.0 ], [ 705050.0, 7458430.0 ], [ 705050.0, 7458420.0 ], [ 705060.0, 7458420.0 ], [ 705060.0, 7458430.0 ], [ 705110.0, 7458430.0 ], [ 705110.0, 7458440.0 ], [ 705120.0, 7458440.0 ], [ 705120.0, 7458430.0 ], [ 705170.0, 7458430.0 ], [ 705170.0, 7458440.0 ], [ 705311.883398818550631, 7458440.0 ] ], [ [ 703690.0, 7458106.513631570152938 ], [ 703690.0, 7458130.0 ], [ 703680.0, 7458130.0 ], [ 703680.0, 7458140.0 ], [ 703670.0, 7458140.0 ], [ 703670.0, 7458170.0 ], [ 703680.0, 7458170.0 ], [ 703680.0, 7458180.0 ], [ 703690.0, 7458180.0 ], [ 703690.0, 7458200.0 ], [ 703680.0, 7458200.0 ], [ 703680.0, 7458210.0 ], [ 703670.0, 7458210.0 ], [ 703670.0, 7458230.0 ], [ 703690.0, 7458230.0 ] ], [ [ 703690.0, 7458230.0 ], [ 703690.0, 7458240.0 ], [ 703700.0, 7458240.0 ], [ 703700.0, 7458250.0 ], [ 703710.0, 7458250.0 ] ], [ [ 703690.0, 7458220.0 ], [ 703700.0, 7458220.0 ], [ 703700.0, 7458230.0 ], [ 703690.0, 7458230.0 ] ], [ [ 703690.0, 7458230.0 ], [ 703690.0, 7458220.0 ] ], [ [ 703700.0, 7458210.0 ], [ 703700.0, 7458200.0 ], [ 703710.0, 7458200.0 ], [ 703710.0, 7458210.0 ], [ 703700.0, 7458210.0 ] ], [ [ 703700.0, 7458190.0 ], [ 703700.0, 7458170.0 ], [ 703720.0, 7458170.0 ] ], [ [ 703720.0, 7458170.0 ], [ 703720.0, 7458180.0 ], [ 703710.0, 7458180.0 ], [ 703710.0, 7458190.0 ], [ 703700.0, 7458190.0 ] ], [ [ 703720.0, 7458140.0 ], [ 703730.0, 7458140.0 ], [ 703730.0, 7458170.0 ], [ 703720.0, 7458170.0 ] ], [ [ 703720.0, 7458170.0 ], [ 703720.0, 7458140.0 ] ], [ [ 703700.0, 7458150.0 ], [ 703700.0, 7458160.0 ], [ 703690.0, 7458160.0 ], [ 703690.0, 7458150.0 ], [ 703700.0, 7458150.0 ] ], [ [ 703700.0, 7458140.0 ], [ 703710.0, 7458140.0 ], [ 703710.0, 7458150.0 ], [ 703700.0, 7458150.0 ] ], [ [ 703700.0, 7458150.0 ], [ 703700.0, 7458140.0 ] ] ] } }
]
}
