{
"type": "FeatureCollection",
"name": "waterline_mndwi_2022",
"crs": { "type": "name", "properties": { "name": "urn:ogc:def:crs:EPSG::32723" } },
"features": [
{ "type": "Feature", "properties": { "source": "MNDWI", "threshold": 0.0 }, "geometry": { "type": "MultiLineString", "coordinates": [ [ [ 703690.0, 7458190.0 ], [ 703680.0, 7458190.0 ], [ 703680.0, 7458210.0 ], [ 703710.0, 7458210.0 ], [ 703710.0, 7458220.0 ], [ 703720.0, 7458220.0 ], [ 703720.0, 7458230.0 ], [ 703710.0, 7458230.0 ], [ 703710.0, 7458250.0 ], [ 703720.0, 7458250.0 ], [ 703720.0, 7458270.0 ], [ 703740.0, 7458270.0 ], [ 703740.0, 7458280.0 ], [ 703720.0, 7458280.0 ], [ 703720.0, 7458290.0 ], [ 703730.0, 7458290.0 ], [ 703730.0, 7458300.0 ], [ 703740.0, 7458300.0 ], [ 703740.0, 7458310.0 ], [ 703750.0, 7458310.0 ], [ 703750.0, 7458320.0 ], [ 703770.0, 7458320.0 ], [ 703770.0, 7458330.0 ], [ 703780.0, 7458330.0 ], [ 703780.0, 7458340.0 ], [ 703810.0, 7458340.0 ], [ 703810.0, 7458350.0 ], [ 703830.0, 7458350.0 ], [ 703830.0, 7458360.0 ], [ 703880.0, 7458360.0 ], [ 703880.0, 7458370.0 ], [ 703920.0, 7458370.0 ], [ 703920.0, 7458380.0 ], [ 703970.0, 7458380.0 ], [ 703970.0, 7458390.0 ], [ 704000.0, 7458390.0 ], [ 704000.0, 7458400.0 ], [ 704110.0, 7458400.0 ], [ 704110.0, 7458410.0 ], [ 704130.0, 7458410.0 ], [ 704130.0, 7458400.0 ], [ 704140.0, 7458400.0 ], [ 704140.0, 7458410.0 ], [ 704160.0, 7458410.0 ], [ 704160.0, 7458400.0 ], [ 704170.0, 7458400.0 ], [ 704170.0, 7458410.0 ], [ 704230.0, 7458410.0 ], [ 704230.0, 7458420.0 ], [ 704370.0, 7458420.0 ], [ 704370.0, 7458430.0 ], [ 704390.0, 7458430.0 ], [ 704390.0, 7458420.0 ], [ 704410.0, 7458420.0 ], [ 704410.0, 7458430.0 ], [ 704460.0, 7458430.0 ], [ 704460.0, 7458420.0 ], [ 704480.0, 7458420.0 ], [ 704480.0, 7458430.0 ], [ 704490.0, 7458430.0 ], [ 704490.0, 7458440.0 ], [ 704510.0, 7458440.0 ], [ 704510.0, 7458430.0 ], [ 704530.0, 7458430.0 ], [ 704530.0, 7458440.0 ], [ 704570.0, 7458440.0 ], [ 704570.0, 7458430.0 ], [ 704580.0, 7458430.0 ], [ 704580.0, 7458440.0 ], [ 704680.0, 7458440.0 ], [ 704680.0, 7458430.0 ], [ 704690.0, 7458430.0 ], [ 704690.0, 7458440.0 ], [ 704730.0, 7458440.0 ], [ 704730.0, 7458430.0 ], [ 704760.0, 7458430.0 ], [ 704760.0, 7458440.0 ], [ 704800.0, 7458440.0 ], [ 704800.0, 7458430.0 ], [ 704810.0, 7458430.0 ], [ 704810.0, 7458440.0 ], [ 704900.0, 7458440.0 ], [ 704900.0, 7458430.0 ], [ 704910.0, 7458430.0 ], [ 704910.0, 7458440.0 ], [ 705080.0, 7458440.0 ], [ 705080.0, 7458450.0 ], [ 705100.0, 7458450.0 ], [ 705100.0, 7458440.0 ], [ 705130.0, 7458440.0 ], [ 705130.0, 7458450.0 ], [ 705150.0, 7458450.0 ], [ 705150.0, 7458440.0 ], [ 705180.0, 7458440.0 ], [ 705180.0, 7458450.0 ], [ 705200.0, 7458450.0 ], [ 705200.0, 7458440.0 ], [ 705210.0, 7458440.0 ], [ 705210.0, 7458450.0 ], [ 705240.0, 7458450.0 ], [ 705240.0, 7458440.0 ], [ 705300.0, 7458440.0 ], [ 705300.0, 7458450.0 ], [ 705310.0, 7458450.0 ], [ 705310.0, 7458460.0 ], [ 705311.883398818550631, 7458460.0 ] ], [ [ 703640.0, 7458106.513631570152938 ], [ 703640.0, 7458110.0 ], [ 703670.0, 7458110.0 ], [ 703670.0, 7458120.0 ], [ 703680.0, 7458120.0 ], [ 703680.0, 7458130.0 ], [ 703690.0, 7458130.0 ], [ 703690.0, 7458150.0 ], [ 703700.0, 7458150.0 ] ], [ [ 703700.0, 7458150.0 ], [ 703700.0, 7458160.0 ], [ 703690.0, 7458160.0 ], [ 703690.0, 7458190.0 ] ], [ [ 703700.0, 7458140.0 ], [ 703710.0, 7458140.0 ], [ 703710.0, 7458150.0 ], [ 703700.0, 7458150.0 ] ], [ [ 703700.0, 7458150.0 ], [ 703700.0, 7458140.0 ] ], [ [ 703720.0, 7458180.0 ], [ 703710.0, 7458180.0 ], [ 703710.0, 7458170.0 ], [ 703720.0, 7458170.0 ], [ 703720.0, 7458180.0 ] ] ] } }
]
}
